ONEWEB-0319             
1 49105U 21075AG  24237.46578079  .00000057  00000+0  11415-3 0  9994
2 49105  87.9175 137.6796 0002398  71.9999 288.1394 13.17650394146468
ONEWEB-0323             
1 49106U 21075AH  24237.60704632  .00000244  00000+0  64358-3 0  9999
2 49106  87.8916 122.4237 0002024  76.3459 283.7894 13.12440762147771
ONEWEB-0330             
1 49108U 21075AK  24237.62733273  .00000049  00000+0  93645-4 0  9991
2 49108  87.9175 137.6525 0002110  80.7920 279.3450 13.17649195146502
ONEWEB-0292             
1 49186U 21083A   24237.56187636 -.00000311  00000+0 -88634-3 0  9990
2 49186  87.8872  91.9310 0001860  77.0840 283.0497 13.13471456144078
ONEWEB-0303             
1 49187U 21083B   24237.58597742  .00000042  00000+0  72999-4 0  9993
2 49187  87.9099 107.1655 0001970  74.6904 285.4445 13.18684290142781
ONEWEB-0306             
1 49188U 21083C   24237.57648048 -.00000370  00000+0 -97038-3 0  9995
2 49188  87.9098 107.1542 0001729  84.9084 275.2245 13.18684770142824
ONEWEB-0307             
1 49189U 21083D   24237.55632039 -.00000253  00000+0 -72645-3 0  9994
2 49189  87.8874  91.9328 0001803  94.8279 265.3056 13.13471115145361
